IRIDIUM 36 [-]          
1 24967U 97056C   24106.23527468  .00000711  00000+0  23465-3 0  9996
2 24967  86.4009 352.7240 0002074  82.3888 277.7545 14.36722673390752
IRIDIUM 39 [-]          
1 25042U 97069D   24106.32755843  .00001259  00000+0  33453-3 0  9991
2 25042  86.3957  34.4389 0016339 298.3611  61.5945 14.47831109387024
IRIDIUM 44 [-]          
1 25078U 97077B   24106.29956040  .00000945  00000+0  29812-3 0  9992
2 25078  86.3987  41.7933 0002883  45.8949 314.2486 14.39303128382131
IRIDIUM 45 [-]          
1 25104U 97082A   24106.61365361  .00025520  00000+0  14703-2 0  9992
2 25104  86.3733 251.5766 0166119 106.8452 255.1074 15.01252334387464
IRIDIUM 51 [-]          
1 25262U 98018A   24106.49626779  .00022596  00000+0  10897-2 0  9996
2 25262  86.3955 261.6326 0151623  54.2633 307.2597 15.08901086381959
